ONEWEB-0334             
1 49200U 21083Q   26059.20426883  .00000092  00000+0  19515-3 0  9998
2 49200  87.9173 296.2136 0001648 117.7971 242.3330 13.20772119222403
ONEWEB-0335             
1 49201U 21083R   26059.20111328 -.00000148  00000+0 -43936-3 0  9992
2 49201  87.9035 341.9092 0001803  72.2977 287.8349 13.13469040216612
ONEWEB-0336             
1 49202U 21083S   26059.24851768  .00000083  00000+0  19185-3 0  9991
2 49202  87.9037 341.8965 0001996  65.5282 294.6055 13.13468253216615
ONEWEB-0337             
1 49203U 21083T   26059.18236718 -.00000190  00000+0 -55652-3 0  9997
2 49203  87.9028 341.9197 0001956  75.1733 284.9612 13.13468518216602
ONEWEB-0338             
1 49204U 21083U   26059.17900052 -.00000164  00000+0 -43472-3 0  9994
2 49204  87.9177 296.2229 0001589  95.4677 264.6638 13.20773001222424
ONEWEB-0339             
1 49205U 21083V   26059.19096591 -.00000240  00000+0 -69127-3 0  9991
2 49205  87.9039 341.9049 0001861  87.5765 272.5578 13.13469376216583
ONEWEB-0340             
1 49206U 21083W   26059.25136509  .00000105  00000+0  23305-3 0  9999
2 49206  87.9247 357.0835 0001845  76.1813 283.9524 13.18685874215614
ONEWEB-0341             
1 49207U 21083X   26059.25796722  .00000030  00000+0  44545-4 0  9996
2 49207  87.9245 357.0920 0002402  78.6515 281.4887 13.18686415215633
ONEWEB-0342             
1 49208U 21083Y   26059.18532365  .00000042  00000+0  70697-4 0  9990
2 49208  87.9189 296.1989 0001641  87.4896 272.6426 13.20772402222390
ONEWEB-0343             
1 49209U 21083Z   26059.26620811  .00000036  00000+0  57360-4 0  9999
2 49209  87.9244 357.0846 0002312  87.2826 272.8571 13.18686018215680
ONEWEB-0344             
1 49210U 21083AA  26059.26206560 -.00000189  00000+0 -55118-3 0  9991
2 49210  87.9028 341.9154 0002148  76.8580 283.2788 13.13469624216598
ONEWEB-0345             
1 49211U 21083AB  26059.25359535 -.00000098  00000+0 -30320-3 0  9999
2 49211  87.9040 341.8835 0002144  77.7129 282.4240 13.13470896216602
ONEWEB-0346             
1 49212U 21083AC  26059.26289311  .00000045  00000+0  80581-4 0  9990
2 49212  87.9236 357.0940 0001837  57.8714 302.2596 13.18687879215625
ONEWEB-0348             
1 49213U 21083AD  26059.17585949  .00000039  00000+0  62773-4 0  9993
2 49213  87.9186 296.2041 0001913  67.7180 292.4156 13.20771523222429
ONEWEB-0350             
1 49214U 21083AE  26059.18673356 -.00000232  00000+0 -67026-3 0  9997
2 49214  87.9038 341.8962 0002089  74.8203 285.3157 13.13469374216622
ONEWEB-0351             
1 49215U 21083AF  26059.16941687  .00000034  00000+0  52758-4 0  9996
2 49215  87.9187 296.2035 0002129 105.6727 254.4642 13.20772236222389
