[{"OBJECT_NAME":"ONEWEB-0334","OBJECT_ID":"2021-083Q","EPOCH":"2026-02-28T04:54:08.826912","MEAN_MOTION":13.20772119,"ECCENTRICITY":0.00016486,"INCLINATION":87.9173,"RA_OF_ASC_NODE":296.2136,"ARG_OF_PERICENTER":117.7971,"MEAN_ANOMALY":242.333,"EPHEMERIS_TYPE":0,"CLASSIFICATION_TYPE":"U","NORAD_CAT_ID":49200,"ELEMENT_SET_NO":999,"REV_AT_EPOCH":22240,"BSTAR":0.00019515192,"MEAN_MOTION_DOT":9.2e-7,"MEAN_MOTION_DDOT":0},{"OBJECT_NAME":"ONEWEB-0335","OBJECT_ID":"2021-083R","EPOCH":"2026-02-28T04:49:36.187392","MEAN_MOTION":13.1346904,"ECCENTRICITY":0.00018034,"INCLINATION":87.9035,"RA_OF_ASC_NODE":341.9092,"ARG_OF_PERICENTER":72.2977,"MEAN_ANOMALY":287.8349,"EPHEMERIS_TYPE":0,"CLASSIFICATION_TYPE":"U","NORAD_CAT_ID":49201,"ELEMENT_SET_NO":999,"REV_AT_EPOCH":21661,"BSTAR":-0.00043936441,"MEAN_MOTION_DOT":-1.48e-6,"MEAN_MOTION_DDOT":0},{"OBJECT_NAME":"ONEWEB-0336","OBJECT_ID":"2021-083S","EPOCH":"2026-02-28T05:57:51.927552","MEAN_MOTION":13.13468253,"ECCENTRICITY":0.00019961,"INCLINATION":87.9037,"RA_OF_ASC_NODE":341.8965,"ARG_OF_PERICENTER":65.5282,"MEAN_ANOMALY":294.6055,"EPHEMERIS_TYPE":0,"CLASSIFICATION_TYPE":"U","NORAD_CAT_ID":49202,"ELEMENT_SET_NO":999,"REV_AT_EPOCH":21661,"BSTAR":0.00019184745,"MEAN_MOTION_DOT":8.3e-7,"MEAN_MOTION_DDOT":0},{"OBJECT_NAME":"ONEWEB-0337","OBJECT_ID":"2021-083T","EPOCH":"2026-02-28T04:22:36.524352","MEAN_MOTION":13.13468518,"ECCENTRICITY":0.00019562,"INCLINATION":87.9028,"RA_OF_ASC_NODE":341.9197,"ARG_OF_PERICENTER":75.1733,"MEAN_ANOMALY":284.9612,"EPHEMERIS_TYPE":0,"CLASSIFICATION_TYPE":"U","NORAD_CAT_ID":49203,"ELEMENT_SET_NO":999,"REV_AT_EPOCH":21660,"BSTAR":-0.00055652167,"MEAN_MOTION_DOT":-1.9e-6,"MEAN_MOTION_DDOT":0},{"OBJECT_NAME":"ONEWEB-0338","OBJECT_ID":"2021-083U","EPOCH":"2026-02-28T04:17:45.644928","MEAN_MOTION":13.20773001,"ECCENTRICITY":0.00015899,"INCLINATION":87.9177,"RA_OF_ASC_NODE":296.2229,"ARG_OF_PERICENTER":95.4677,"MEAN_ANOMALY":264.6638,"EPHEMERIS_TYPE":0,"CLASSIFICATION_TYPE":"U","NORAD_CAT_ID":49204,"ELEMENT_SET_NO":999,"REV_AT_EPOCH":22242,"BSTAR":-0.00043472196,"MEAN_MOTION_DOT":-1.64e-6,"MEAN_MOTION_DDOT":0},{"OBJECT_NAME":"ONEWEB-0339","OBJECT_ID":"2021-083V","EPOCH":"2026-02-28T04:34:59.454624","MEAN_MOTION":13.13469376,"ECCENTRICITY":0.00018614,"INCLINATION":87.9039,"RA_OF_ASC_NODE":341.9049,"ARG_OF_PERICENTER":87.5765,"MEAN_ANOMALY":272.5578,"EPHEMERIS_TYPE":0,"CLASSIFICATION_TYPE":"U","NORAD_CAT_ID":49205,"ELEMENT_SET_NO":999,"REV_AT_EPOCH":21658,"BSTAR":-0.00069127102,"MEAN_MOTION_DOT":-2.4e-6,"MEAN_MOTION_DDOT":0},{"OBJECT_NAME":"ONEWEB-0340","OBJECT_ID":"2021-083W","EPOCH":"2026-02-28T06:01:57.943776","MEAN_MOTION":13.18685874,"ECCENTRICITY":0.00018452,"INCLINATION":87.9247,"RA_OF_ASC_NODE":357.0835,"ARG_OF_PERICENTER":76.1813,"MEAN_ANOMALY":283.9524,"EPHEMERIS_TYPE":0,"CLASSIFICATION_TYPE":"U","NORAD_CAT_ID":49206,"ELEMENT_SET_NO":999,"REV_AT_EPOCH":21561,"BSTAR":0.00023305033,"MEAN_MOTION_DOT":1.05e-6,"MEAN_MOTION_DDOT":0},{"OBJECT_NAME":"ONEWEB-0341","OBJECT_ID":"2021-083X","EPOCH":"2026-02-28T06:11:28.367808","MEAN_MOTION":13.18686415,"ECCENTRICITY":0.0002402,"INCLINATION":87.9245,"RA_OF_ASC_NODE":357.092,"ARG_OF_PERICENTER":78.6515,"MEAN_ANOMALY":281.4887,"EPHEMERIS_TYPE":0,"CLASSIFICATION_TYPE":"U","NORAD_CAT_ID":49207,"ELEMENT_SET_NO":999,"REV_AT_EPOCH":21563,"BSTAR":4.4545467e-5,"MEAN_MOTION_DOT":3.0e-7,"MEAN_MOTION_DDOT":0},{"OBJECT_NAME":"ONEWEB-0342","OBJECT_ID":"2021-083Y","EPOCH":"2026-02-28T04:26:51.963360","MEAN_MOTION":13.20772402,"ECCENTRICITY":0.00016413,"INCLINATION":87.9189,"RA_OF_ASC_NODE":296.1989,"ARG_OF_PERICENTER":87.4896,"MEAN_ANOMALY":272.6426,"EPHEMERIS_TYPE":0,"CLASSIFICATION_TYPE":"U","NORAD_CAT_ID":49208,"ELEMENT_SET_NO":999,"REV_AT_EPOCH":22239,"BSTAR":7.0697165e-5,"MEAN_MOTION_DOT":4.2e-7,"MEAN_MOTION_DDOT":0},{"OBJECT_NAME":"ONEWEB-0343","OBJECT_ID":"2021-083Z","EPOCH":"2026-02-28T06:23:20.380704","MEAN_MOTION":13.18686018,"ECCENTRICITY":0.00023123,"INCLINATION":87.9244,"RA_OF_ASC_NODE":357.0846,"ARG_OF_PERICENTER":87.2826,"MEAN_ANOMALY":272.8571,"EPHEMERIS_TYPE":0,"CLASSIFICATION_TYPE":"U","NORAD_CAT_ID":49209,"ELEMENT_SET_NO":999,"REV_AT_EPOCH":21568,"BSTAR":5.7359818e-5,"MEAN_MOTION_DOT":3.6e-7,"MEAN_MOTION_DDOT":0},{"OBJECT_NAME":"ONEWEB-0344","OBJECT_ID":"2021-083AA","EPOCH":"2026-02-28T06:17:22.467840","MEAN_MOTION":13.13469624,"ECCENTRICITY":0.00021483,"INCLINATION":87.9028,"RA_OF_ASC_NODE":341.9154,"ARG_OF_PERICENTER":76.858,"MEAN_ANOMALY":283.2788,"EPHEMERIS_TYPE":0,"CLASSIFICATION_TYPE":"U","NORAD_CAT_ID":49210,"ELEMENT_SET_NO":999,"REV_AT_EPOCH":21659,"BSTAR":-0.0005511807,"MEAN_MOTION_DOT":-1.89e-6,"MEAN_MOTION_DDOT":0},{"OBJECT_NAME":"ONEWEB-0345","OBJECT_ID":"2021-083AB","EPOCH":"2026-02-28T06:05:10.638240","MEAN_MOTION":13.13470896,"ECCENTRICITY":0.00021449,"INCLINATION":87.904,"RA_OF_ASC_NODE":341.8835,"ARG_OF_PERICENTER":77.7129,"MEAN_ANOMALY":282.424,"EPHEMERIS_TYPE":0,"CLASSIFICATION_TYPE":"U","NORAD_CAT_ID":49211,"ELEMENT_SET_NO":999,"REV_AT_EPOCH":21660,"BSTAR":-0.00030320342,"MEAN_MOTION_DOT":-9.8e-7,"MEAN_MOTION_DDOT":0},{"OBJECT_NAME":"ONEWEB-0346","OBJECT_ID":"2021-083AC","EPOCH":"2026-02-28T06:18:33.964704","MEAN_MOTION":13.18687879,"ECCENTRICITY":0.00018372,"INCLINATION":87.9236,"RA_OF_ASC_NODE":357.094,"ARG_OF_PERICENTER":57.8714,"MEAN_ANOMALY":302.2596,"EPHEMERIS_TYPE":0,"CLASSIFICATION_TYPE":"U","NORAD_CAT_ID":49212,"ELEMENT_SET_NO":999,"REV_AT_EPOCH":21562,"BSTAR":8.0580899e-5,"MEAN_MOTION_DOT":4.5e-7,"MEAN_MOTION_DDOT":0},{"OBJECT_NAME":"ONEWEB-0348","OBJECT_ID":"2021-083AD","EPOCH":"2026-02-28T04:13:14.259936","MEAN_MOTION":13.20771523,"ECCENTRICITY":0.00019137,"INCLINATION":87.9186,"RA_OF_ASC_NODE":296.2041,"ARG_OF_PERICENTER":67.718,"MEAN_ANOMALY":292.4156,"EPHEMERIS_TYPE":0,"CLASSIFICATION_TYPE":"U","NORAD_CAT_ID":49213,"ELEMENT_SET_NO":999,"REV_AT_EPOCH":22242,"BSTAR":6.277267e-5,"MEAN_MOTION_DOT":3.9e-7,"MEAN_MOTION_DDOT":0},{"OBJECT_NAME":"ONEWEB-0350","OBJECT_ID":"2021-083AE","EPOCH":"2026-02-28T04:28:53.779584","MEAN_MOTION":13.13469374,"ECCENTRICITY":0.00020899,"INCLINATION":87.9038,"RA_OF_ASC_NODE":341.8962,"ARG_OF_PERICENTER":74.8203,"MEAN_ANOMALY":285.3157,"EPHEMERIS_TYPE":0,"CLASSIFICATION_TYPE":"U","NORAD_CAT_ID":49214,"ELEMENT_SET_NO":999,"REV_AT_EPOCH":21662,"BSTAR":-0.00067026265,"MEAN_MOTION_DOT":-2.32e-6,"MEAN_MOTION_DDOT":0},{"OBJECT_NAME":"ONEWEB-0351","OBJECT_ID":"2021-083AF","EPOCH":"2026-02-28T04:03:57.617568","MEAN_MOTION":13.20772236,"ECCENTRICITY":0.00021293,"INCLINATION":87.9187,"RA_OF_ASC_NODE":296.2035,"ARG_OF_PERICENTER":105.6727,"MEAN_ANOMALY":254.4642,"EPHEMERIS_TYPE":0,"CLASSIFICATION_TYPE":"U","NORAD_CAT_ID":49215,"ELEMENT_SET_NO":999,"REV_AT_EPOCH":22238,"BSTAR":5.2757612e-5,"MEAN_MOTION_DOT":3.4e-7,"MEAN_MOTION_DDOT":0}]
